METHANESAT              
1 59101U 24043D   26020.94521429  .00008466  00000+0  73685-3 0  9990
2 59101  97.8223 151.5558 0011002 139.6932 220.5107 14.97138800102614
GOSAT-GW (IBUKI GW)     
1 64694U 25141A   26020.98664194  .00002830  00000+0  50684-3 0  9997
2 64694  98.0469 320.7957 0001430  82.9851 277.1516 14.67576252 30255
GHGSAT-C1               
1 46278U 20061G   26020.96509789  .00053185  00000+0  62695-3 0  9991
2 46278  97.2256 102.3028 0001416 176.8952 183.2315 15.61212878300430
GHGSAT-C12              
1 64529U 25135B   26020.95787163  .00008658  00000+0  41614-3 0  9993
2 64529  97.4613 137.3420 0004372 342.0695  18.0384 15.19050592 32469
GHGSAT-C13              
1 64548U 25135W   26020.83268474  .00008356  00000+0  39338-3 0  9995
2 64548  97.4640 137.5735 0000263 117.5457 242.5804 15.19788553 32463
GHGSAT-C2               
1 47509U 21006DA  26020.67348964  .00017409  00000+0  50273-3 0  9991
2 47509  97.2383  70.4705 0004933 357.7931   2.3291 15.35715476277193
GHGSAT-C3               
1 52737U 22057F   26020.94543833  .00017443  00000+0  56614-3 0  9992
2 52737  97.6366 161.5368 0005147 286.3546  73.7129 15.32010653202979
GHGSAT-C4               
1 52746U 22057Q   26020.96473414  .00017134  00000+0  55631-3 0  9996
2 52746  97.6293 160.5371 0005333 268.3777  91.6853 15.32001429202989
GHGSAT-C5               
1 52744U 22057N   26020.91694588  .00031864  00000+0  10301-2 0  9996
2 52744  97.6454 162.9093 0006120 281.9887  78.0668 15.32005714202974
GHGSAT-C6               
1 56204U 23054AC  26020.99732487  .00031963  00000+0  60766-3 0  9999
2 56204  97.3168 288.6769 0006693 202.2165 157.8797 15.48171228155645
GHGSAT-C7               
1 56209U 23054AH  26020.89817172  .00051485  00000+0  10398-2 0  9994
2 56209  97.3124 287.6801 0007160 198.3671 161.7321 15.46309902155608
GHGSAT-C8               
1 56186U 23054J   26020.96960538  .00035371  00000+0  67165-3 0  9992
2 56186  97.3130 288.0589 0003735 218.8899 141.2083 15.48202027155623
SENTINEL-5P             
1 42969U 17064A   26020.81588193  .00000149  00000+0  91526-4 0  9991
2 42969  98.7829 324.0627 0001128  87.5018 272.6288 14.19534849428658
ENMAP                   
1 52159U 22033C   26020.95445738  .00001019  00000+0  15899-3 0  9992
2 52159  97.9789 105.3058 0001323  91.5061 268.6300 14.75003510204957
PRISMA                  
1 44072U 19015A   26020.98277332  .00002908  00000+0  35861-3 0  9998
2 44072  97.8649  97.8674 0001336  85.5596 274.5770 14.83652539370226
SENTINEL-2A             
1 40697U 15028A   26020.93603141  .00000270  00000+0  11817-3 0  9998
2 40697  98.5695  97.9329 0003366 166.8183 193.3089 14.31506163552678
SENTINEL-2B             
1 42063U 17013A   26020.93474184  .00000218  00000+0  99876-4 0  9990
2 42063  98.5665  97.8215 0001119  89.4347 270.6964 14.30821095463588
SENTINEL-2C             
1 60989U 24157A   26020.82989212  .00000336  00000+0  14483-3 0  9996
2 60989  98.5624  97.7390 0001284  86.2953 273.8377 14.30822093 71918
LANDSAT 8               
1 39084U 13008A   26020.93525481  .00000888  00000+0  20710-3 0  9999
2 39084  98.2013  93.4192 0001209  96.7761 263.3576 14.57116942676455
LANDSAT 9               
1 49260U 21088A   26020.76372176  .00000879  00000+0  20511-3 0  9994
2 49260  98.2035  93.2982 0001209  95.6675 264.4662 14.57116149229533
